CCSDS_OMM_VERS = 2.0
CREATION_DATE  = 
ORIGINATOR     = 

OBJECT_NAME    = SL-16 R/B
OBJECT_ID      = 1993-016B
CENTER_NAME    = EARTH
REF_FRAME      = TEME
TIME_SYSTEM    = UTC
MEAN_ELEMENT_THEORY = SGP/SGP4

EPOCH          = 2026-01-13T07:09:20.433024
MEAN_MOTION    = 14.15294057
ECCENTRICITY   = .00085899
INCLINATION    = 71.0088
RA_OF_ASC_NODE = 331.5209
ARG_OF_PERICENTER = 36.5300
MEAN_ANOMALY   = 323.6408

EPHEMERIS_TYPE = 0
CLASSIFICATION_TYPE = U
NORAD_CAT_ID   = 22566
ELEMENT_SET_NO = 999
REV_AT_EPOCH   = 69433
BSTAR          = -.86943593E-4
MEAN_MOTION_DOT = -.217E-5
MEAN_MOTION_DDOT = 0

CCSDS_OMM_VERS = 2.0
CREATION_DATE  = 
ORIGINATOR     = 

OBJECT_NAME    = COSMOS 2242
OBJECT_ID      = 1993-024A
CENTER_NAME    = EARTH
REF_FRAME      = TEME
TIME_SYSTEM    = UTC
MEAN_ELEMENT_THEORY = SGP/SGP4

EPOCH          = 2026-01-13T06:27:50.958720
MEAN_MOTION    = 14.96269419
ECCENTRICITY   = .00176774
INCLINATION    = 82.5208
RA_OF_ASC_NODE = 319.7070
ARG_OF_PERICENTER = 127.4378
MEAN_ANOMALY   = 232.8455

EPHEMERIS_TYPE = 0
CLASSIFICATION_TYPE = U
NORAD_CAT_ID   = 22626
ELEMENT_SET_NO = 999
REV_AT_EPOCH   = 77210
BSTAR          = .16959939E-3
MEAN_MOTION_DOT = .1947E-4
MEAN_MOTION_DDOT = 0

CCSDS_OMM_VERS = 2.0
CREATION_DATE  = 
ORIGINATOR     = 

OBJECT_NAME    = SL-16 R/B
OBJECT_ID      = 1993-059B
CENTER_NAME    = EARTH
REF_FRAME      = TEME
TIME_SYSTEM    = UTC
MEAN_ELEMENT_THEORY = SGP/SGP4

EPOCH          = 2026-01-13T06:46:23.710368
MEAN_MOTION    = 14.17220078
ECCENTRICITY   = .0019291
INCLINATION    = 70.9907
RA_OF_ASC_NODE = 127.9727
ARG_OF_PERICENTER = 291.7741
MEAN_ANOMALY   = 68.1330

EPHEMERIS_TYPE = 0
CLASSIFICATION_TYPE = U
NORAD_CAT_ID   = 22803
ELEMENT_SET_NO = 999
REV_AT_EPOCH   = 67168
BSTAR          = .13212487E-3
MEAN_MOTION_DOT = .219E-5
MEAN_MOTION_DDOT = 0

CCSDS_OMM_VERS = 2.0
CREATION_DATE  = 
ORIGINATOR     = 

OBJECT_NAME    = ARIANE 40 R/B
OBJECT_ID      = 1993-061H
CENTER_NAME    = EARTH
REF_FRAME      = TEME
TIME_SYSTEM    = UTC
MEAN_ELEMENT_THEORY = SGP/SGP4

EPOCH          = 2026-01-13T04:23:07.872864
MEAN_MOTION    = 14.32824876
ECCENTRICITY   = .00118192
INCLINATION    = 98.5029
RA_OF_ASC_NODE = 83.1338
ARG_OF_PERICENTER = 89.5843
MEAN_ANOMALY   = 270.6696

EPHEMERIS_TYPE = 0
CLASSIFICATION_TYPE = U
NORAD_CAT_ID   = 22830
ELEMENT_SET_NO = 999
REV_AT_EPOCH   = 68615
BSTAR          = .76177842E-4
MEAN_MOTION_DOT = .165E-5
MEAN_MOTION_DDOT = 0

CCSDS_OMM_VERS = 2.0
CREATION_DATE  = 
ORIGINATOR     = 

OBJECT_NAME    = COSMOS 2278
OBJECT_ID      = 1994-023A
CENTER_NAME    = EARTH
REF_FRAME      = TEME
TIME_SYSTEM    = UTC
MEAN_ELEMENT_THEORY = SGP/SGP4

EPOCH          = 2026-01-13T05:17:47.025024
MEAN_MOTION    = 14.14363387
ECCENTRICITY   = .00067926
INCLINATION    = 71.0550
RA_OF_ASC_NODE = 291.1478
ARG_OF_PERICENTER = 121.0514
MEAN_ANOMALY   = 239.1276

EPHEMERIS_TYPE = 0
CLASSIFICATION_TYPE = U
NORAD_CAT_ID   = 23087
ELEMENT_SET_NO = 999
REV_AT_EPOCH   = 63696
BSTAR          = .14935625E-3
MEAN_MOTION_DOT = .239E-5
MEAN_MOTION_DDOT = 0

CCSDS_OMM_VERS = 2.0
CREATION_DATE  = 
ORIGINATOR     = 

OBJECT_NAME    = SL-16 R/B
OBJECT_ID      = 1994-023B
CENTER_NAME    = EARTH
REF_FRAME      = TEME
TIME_SYSTEM    = UTC
MEAN_ELEMENT_THEORY = SGP/SGP4

EPOCH          = 2026-01-13T05:19:09.603552
MEAN_MOTION    = 14.15004797
ECCENTRICITY   = .00031669
INCLINATION    = 70.9986
RA_OF_ASC_NODE = 187.3727
ARG_OF_PERICENTER = 341.9085
MEAN_ANOMALY   = 18.1924

EPHEMERIS_TYPE = 0
CLASSIFICATION_TYPE = U
NORAD_CAT_ID   = 23088
ELEMENT_SET_NO = 999
REV_AT_EPOCH   = 63824
BSTAR          = .17318107E-3
MEAN_MOTION_DOT = .288E-5
MEAN_MOTION_DDOT = 0

CCSDS_OMM_VERS = 2.0
CREATION_DATE  = 
ORIGINATOR     = 

OBJECT_NAME    = SL-16 R/B
OBJECT_ID      = 1994-074B
CENTER_NAME    = EARTH
REF_FRAME      = TEME
TIME_SYSTEM    = UTC
MEAN_ELEMENT_THEORY = SGP/SGP4

EPOCH          = 2026-01-13T07:42:25.104096
MEAN_MOTION    = 14.79331932
ECCENTRICITY   = .00076559
INCLINATION    = 97.7174
RA_OF_ASC_NODE = 46.3659
ARG_OF_PERICENTER = 50.1762
MEAN_ANOMALY   = 320.6721

EPHEMERIS_TYPE = 0
CLASSIFICATION_TYPE = U
NORAD_CAT_ID   = 23343
ELEMENT_SET_NO = 999
REV_AT_EPOCH   = 67906
BSTAR          = .59719437E-4
MEAN_MOTION_DOT = .395E-5
MEAN_MOTION_DDOT = 0

CCSDS_OMM_VERS = 2.0
CREATION_DATE  = 
ORIGINATOR     = 

OBJECT_NAME    = SL-16 R/B
OBJECT_ID      = 1994-077B
CENTER_NAME    = EARTH
REF_FRAME      = TEME
TIME_SYSTEM    = UTC
MEAN_ELEMENT_THEORY = SGP/SGP4

EPOCH          = 2026-01-13T00:18:35.099136
MEAN_MOTION    = 14.15553831
ECCENTRICITY   = .00047885
INCLINATION    = 70.9834
RA_OF_ASC_NODE = 109.6245
ARG_OF_PERICENTER = 258.7398
MEAN_ANOMALY   = 101.3187

EPHEMERIS_TYPE = 0
CLASSIFICATION_TYPE = U
NORAD_CAT_ID   = 23405
ELEMENT_SET_NO = 999
REV_AT_EPOCH   = 60835
BSTAR          = .17241242E-3
MEAN_MOTION_DOT = .289E-5
MEAN_MOTION_DDOT = 0

CCSDS_OMM_VERS = 2.0
CREATION_DATE  = 
ORIGINATOR     = 

OBJECT_NAME    = ARIANE 40+ R/B
OBJECT_ID      = 1995-021B
CENTER_NAME    = EARTH
REF_FRAME      = TEME
TIME_SYSTEM    = UTC
MEAN_ELEMENT_THEORY = SGP/SGP4

EPOCH          = 2026-01-13T05:17:28.810176
MEAN_MOTION    = 14.39723531
ECCENTRICITY   = .0005828
INCLINATION    = 98.4606
RA_OF_ASC_NODE = 85.4234
ARG_OF_PERICENTER = 314.2900
MEAN_ANOMALY   = 112.0545

EPHEMERIS_TYPE = 0
CLASSIFICATION_TYPE = U
NORAD_CAT_ID   = 23561
ELEMENT_SET_NO = 999
REV_AT_EPOCH   = 61126
BSTAR          = .93120421E-4
MEAN_MOTION_DOT = .248E-5
MEAN_MOTION_DDOT = 0

CCSDS_OMM_VERS = 2.0
CREATION_DATE  = 
ORIGINATOR     = 

OBJECT_NAME    = SL-16 R/B
OBJECT_ID      = 1995-058B
CENTER_NAME    = EARTH
REF_FRAME      = TEME
TIME_SYSTEM    = UTC
MEAN_ELEMENT_THEORY = SGP/SGP4

EPOCH          = 2026-01-13T05:29:57.628608
MEAN_MOTION    = 14.15490004
ECCENTRICITY   = .00137352
INCLINATION    = 71.0229
RA_OF_ASC_NODE = 296.6931
ARG_OF_PERICENTER = 213.3572
MEAN_ANOMALY   = 146.6687

EPHEMERIS_TYPE = 0
CLASSIFICATION_TYPE = U
NORAD_CAT_ID   = 23705
ELEMENT_SET_NO = 999
REV_AT_EPOCH   = 56000
BSTAR          = .45725287E-4
MEAN_MOTION_DOT = .42E-6
MEAN_MOTION_DDOT = 0

CCSDS_OMM_VERS = 2.0
CREATION_DATE  = 
ORIGINATOR     = 

OBJECT_NAME    = SL-16 R/B
OBJECT_ID      = 1996-051B
CENTER_NAME    = EARTH
REF_FRAME      = TEME
TIME_SYSTEM    = UTC
MEAN_ELEMENT_THEORY = SGP/SGP4

EPOCH          = 2026-01-13T05:12:21.142368
MEAN_MOTION    = 14.12400661
ECCENTRICITY   = .00190517
INCLINATION    = 70.7596
RA_OF_ASC_NODE = 292.6568
ARG_OF_PERICENTER = 222.5981
MEAN_ANOMALY   = 137.3662

EPHEMERIS_TYPE = 0
CLASSIFICATION_TYPE = U
NORAD_CAT_ID   = 24298
ELEMENT_SET_NO = 999
REV_AT_EPOCH   = 51381
BSTAR          = .29112547E-4
MEAN_MOTION_DOT = .4E-7
MEAN_MOTION_DDOT = 0

CCSDS_OMM_VERS = 2.0
CREATION_DATE  = 
ORIGINATOR     = 

OBJECT_NAME    = ORBVIEW 2 (SEASTAR)
OBJECT_ID      = 1997-037A
CENTER_NAME    = EARTH
REF_FRAME      = TEME
TIME_SYSTEM    = UTC
MEAN_ELEMENT_THEORY = SGP/SGP4

EPOCH          = 2026-01-13T05:06:37.699776
MEAN_MOTION    = 14.35444461
ECCENTRICITY   = .00017417
INCLINATION    = 98.8478
RA_OF_ASC_NODE = 176.0843
ARG_OF_PERICENTER = 199.4396
MEAN_ANOMALY   = 160.6723

EPHEMERIS_TYPE = 0
CLASSIFICATION_TYPE = U
NORAD_CAT_ID   = 24883
ELEMENT_SET_NO = 999
REV_AT_EPOCH   = 50051
BSTAR          = .9907757E-4
MEAN_MOTION_DOT = .238E-5
MEAN_MOTION_DDOT = 0

