SL-16 R/B               
1 22566U 93016B   26013.29815316 -.00000217  00000+0 -86944-4 0  9993
2 22566  71.0088 331.5209 0008589  36.5300 323.6408 14.15294057694336
COSMOS 2242             
1 22626U 93024A   26013.26933980  .00001947  00000+0  16960-3 0  9993
2 22626  82.5208 319.7070 0017677 127.4378 232.8455 14.96269419772109
SL-16 R/B               
1 22803U 93059B   26013.28221887  .00000219  00000+0  13212-3 0  9994
2 22803  70.9907 127.9727 0019291 291.7741  68.1330 14.17220078671688
ARIANE 40 R/B           
1 22830U 93061H   26013.18273001  .00000165  00000+0  76178-4 0  9992
2 22830  98.5029  83.1338 0011819  89.5843 270.6696 14.32824876686150
COSMOS 2278             
1 23087U 94023A   26013.22068316  .00000239  00000+0  14936-3 0  9997
2 23087  71.0550 291.1478 0006792 121.0514 239.1276 14.14363387636960
SL-16 R/B               
1 23088U 94023B   26013.22163893  .00000288  00000+0  17318-3 0  9995
2 23088  70.9986 187.3727 0003166 341.9085  18.1924 14.15004797638249
SL-16 R/B               
1 23343U 94074B   26013.32112389  .00000395  00000+0  59719-4 0  9991
2 23343  97.7174  46.3659 0007655  50.1762 320.6721 14.79331932679060
SL-16 R/B               
1 23405U 94077B   26013.01290624  .00000289  00000+0  17241-3 0  9993
2 23405  70.9834 109.6245 0004788 258.7398 101.3187 14.15553831608352
ARIANE 40+ R/B          
1 23561U 95021B   26013.22047234  .00000248  00000+0  93120-4 0  9992
2 23561  98.4606  85.4234 0005828 314.2900 112.0545 14.39723531611262
SL-16 R/B               
1 23705U 95058B   26013.22913922  .00000042  00000+0  45725-4 0  9998
2 23705  71.0229 296.6931 0013735 213.3572 146.6687 14.15490004560005
SL-16 R/B               
1 24298U 96051B   26013.21691137  .00000004  00000+0  29113-4 0  9991
2 24298  70.7596 292.6568 0019051 222.5981 137.3662 14.12400661513815
ORBVIEW 2 (SEASTAR)     
1 24883U 97037A   26013.21293634  .00000238  00000+0  99078-4 0  9992
2 24883  98.8478 176.0843 0001741 199.4396 160.6723 14.35444461500516
